{
    "links": {
        "self": "http://www.neowsapp.com/rest/v1/neo/3797754?api_key=iIulBulltgU6a56xZRHN4H3l9WmuAYTsLGpBGhQ2"
    },
    "id": "3797754",
    "neo_reference_id": "3797754",
    "name": "(2018 BH1)",
    "designation": "2018 BH1",
    "nasa_jpl_url": "http://ssd.jpl.nasa.gov/sbdb.cgi?sstr=3797754",
    "absolute_magnitude_h": 24.9,
    "estimated_diameter": {
        "kilometers": {
            "estimated_diameter_min": 0.0278326768,
            "estimated_diameter_max": 0.0622357573
        },
        "meters": {
            "estimated_diameter_min": 27.8326768072,
            "estimated_diameter_max": 62.2357573367
        },
        "miles": {
            "estimated_diameter_min": 0.0172944182,
            "estimated_diameter_max": 0.0386714948
        },
        "feet": {
            "estimated_diameter_min": 91.3145593761,
            "estimated_diameter_max": 204.1855621004
        }
    },
    "is_potentially_hazardous_asteroid": false,
    "close_approach_data": [
        {
            "close_approach_date": "2017-12-26",
            "close_approach_date_full": "2017-Dec-26 14:13",
            "epoch_date_close_approach": 1514297580000,
            "relative_velocity": {
                "kilometers_per_second": "12.9680459556",
                "kilometers_per_hour": "46684.9654400164",
                "miles_per_hour": "29008.2219979924"
            },
            "miss_distance": {
                "astronomical": "0.0167472833",
                "lunar": "6.5146932037",
                "kilometers": "2505357.909966571",
                "miles": "1556757.2174618398"
            },
            "orbiting_body": "Earth"
        }
    ],
    "orbital_data": {
        "orbit_id": "4",
        "orbit_determination_date": "2018-01-24 06:57:33",
        "first_observation_date": "2018-01-16",
        "last_observation_date": "2018-01-24",
        "data_arc_in_days": 8,
        "observations_used": 16,
        "orbit_uncertainty": "9",
        "minimum_orbit_intersection": ".00351004",
        "jupiter_tisserand_invariant": "3.374",
        "epoch_osculation": "2458137.5",
        "eccentricity": ".6200368915627634",
        "semi_major_axis": "2.213826604960276",
        "inclination": ".2698432960456999",
        "ascending_node_longitude": "38.01548714053606",
        "orbital_period": "1203.13353028214",
        "perihelion_distance": ".8411724383617607",
        "perihelion_argument": "7.215612734902726",
        "aphelion_distance": "3.586480771558791",
        "perihelion_time": "2458079.733444154997",
        "mean_anomaly": "17.28483130157991",
        "mean_motion": ".2992186577291869",
        "equinox": "J2000",
        "orbit_class": {
            "orbit_class_type": "APO",
            "orbit_class_description": "Near-Earth asteroid orbits which cross the Earth’s orbit similar to that of 1862 Apollo",
            "orbit_class_range": "a (semi-major axis) > 1.0 AU; q (perihelion) < 1.017 AU"
        }
    },
    "is_sentry_object": false
}